{"type":"FeatureCollection","generated":"2026-09-15","features":[{"type":"Feature","id":117,"geometry":{"type":"Point","coordinates":[-73.98451,40.71402]},"properties":{"id":"henry-street-settlement-1","org":"Henry Street Settlement","org_id":"henry-street-settlement","address":"265 Henry Street, New York, NY 10002","geo_label":"265 HENRY STREET, New York, NY, USA","borough":"Manhattan","dba":"Henry Street Settlement","website":"https://henrystreet.org","phone":"(212)766-9200 x2224","org_type":"501(c)(3) Nonprofit","service_locations":"All program and administrative sites"}}]}
